{"type": "FeatureCollection", "features": [ {"type": "Feature", "properties": {"norad_id": 33942, "name": "COSMOS 2251 DEB", "group": "cosmos-2251-debris", "lat": -7.990264653400337, "lon": -66.15861071400988, "alt_km": 756.646546259869, "timestamp": "2025-12-01T03:58:49.144280+00:00", "meta": {"OBJECT_NAME": "COSMOS 2251 DEB", "OBJECT_ID": "1993-036EX", "EPOCH": "2025-11-30T15:27:46.808928", "MEAN_MOTION": 14.3795807, "ECCENTRICITY": 0.0019776, "INCLINATION": 74.036, "RA_OF_ASC_NODE": 297.1043, "ARG_OF_PERICENTER": 23.2574, "MEAN_ANOMALY": 149.8403, "EPHEMERIS_TYPE": 0, "CLASSIFICATION_TYPE": "U", "NORAD_CAT_ID": 33942, "ELEMENT_SET_NO": 999, "REV_AT_EPOCH": 87960, "BSTAR": 0.00025924, "MEAN_MOTION_DOT": 7.59e-06, "MEAN_MOTION_DDOT": 0, "GROUP": "cosmos-2251-debris"}, "tle": {"line1": "1 33942U 93036EX  25334.64429177  .00000759  00000+0  25924-3 0  9994", "line2": "2 33942  74.0360 297.1043 0019776  23.2574 149.8403 14.37958070879605"}}, "geometry": {"type": "Point", "coordinates": [-66.15861071400988, -7.990264653400337]}}, {"type": "Feature", "properties": {"norad_id": 33944, "name": "COSMOS 2251 DEB", "group": "cosmos-2251-debris", "lat": -67.20969293384877, "lon": -166.8494989431911, "alt_km": 854.2861294872782, "timestamp": "2025-12-01T03:58:49.144290+00:00", "meta": {"OBJECT_NAME": "COSMOS 2251 DEB", "OBJECT_ID": "1993-036EZ", "EPOCH": "2025-11-30T17:34:44.974272", "MEAN_MOTION": 14.37303381, "ECCENTRICITY": 0.0111901, "INCLINATION": 74.04, "RA_OF_ASC_NODE": 331.0173, "ARG_OF_PERICENTER": 73.7965, "MEAN_ANOMALY": 98.1647, "EPHEMERIS_TYPE": 0, "CLASSIFICATION_TYPE": "U", "NORAD_CAT_ID": 33944, "ELEMENT_SET_NO": 999, "REV_AT_EPOCH": 87855, "BSTAR": 0.00027047, "MEAN_MOTION_DOT": 8.4e-06, "MEAN_MOTION_DDOT": 0, "GROUP": "cosmos-2251-debris"}, "tle": {"line1": "1 33944U 93036EZ  25334.73246498  .00000840  00000+0  27047-3 0  9998", "line2": "2 33944  74.0400 331.0173 0111901  73.7965  98.1647 14.37303381878559"}}, "geometry": {"type": "Point", "coordinates": [-166.8494989431911, -67.20969293384877]}}, {"type": "Feature", "properties": {"norad_id": 33945, "name": "COSMOS 2251 DEB", "group": "cosmos-2251-debris", "lat": 18.903209291171624, "lon": 141.84846127646207, "alt_km": 779.647875769776, "timestamp": "2025-12-01T03:58:49.144300+00:00", "meta": {"OBJECT_NAME": "COSMOS 2251 DEB", "OBJECT_ID": "1993-036FA", "EPOCH": "2025-11-30T10:30:06.778944", "MEAN_MOTION": 14.34584635, "ECCENTRICITY": 0.00214909, "INCLINATION": 74.0293, "RA_OF_ASC_NODE": 328.8102, "ARG_OF_PERICENTER": 59.047, "MEAN_ANOMALY": 301.279, "EPHEMERIS_TYPE": 0, "CLASSIFICATION_TYPE": "U", "NORAD_CAT_ID": 33945, "ELEMENT_SET_NO": 999, "REV_AT_EPOCH": 87839, "BSTAR": 0.00014319121, "MEAN_MOTION_DOT": 3.79e-06, "MEAN_MOTION_DDOT": 0, "GROUP": "cosmos-2251-debris"}, "tle": {"line1": "1 33945U 93036FA  25334.43757846  .00000379  00000+0  14319-3 0  9995", "line2": "2 33945  74.0293 328.8102 0021490  59.0470 301.2790 14.34584635878396"}}, "geometry": {"type": "Point", "coordinates": [141.84846127646207, 18.903209291171624]}}, {"type": "Feature", "properties": {"norad_id": 33948, "name": "COSMOS 2251 DEB", "group": "cosmos-2251-debris", "lat": -32.61022743704308, "lon": -44.18220252158639, "alt_km": 775.9204221092732, "timestamp": "2025-12-01T03:58:49.144310+00:00", "meta": {"OBJECT_NAME": "COSMOS 2251 DEB", "OBJECT_ID": "1993-036FD", "EPOCH": "2025-11-30T16:25:53.016096", "MEAN_MOTION": 14.35605752, "ECCENTRICITY": 0.0022237, "INCLINATION": 74.0352, "RA_OF_ASC_NODE": 327.2534, "ARG_OF_PERICENTER": 46.6895, "MEAN_ANOMALY": 313.6107, "EPHEMERIS_TYPE": 0, "CLASSIFICATION_TYPE": "U", "NORAD_CAT_ID": 33948, "ELEMENT_SET_NO": 999, "REV_AT_EPOCH": 87850, "BSTAR": 0.00019393, "MEAN_MOTION_DOT": 5.34e-06, "MEAN_MOTION_DDOT": 0, "GROUP": "cosmos-2251-debris"}, "tle": {"line1": "1 33948U 93036FD  25334.68464139  .00000534  00000+0  19393-3 0  9995", "line2": "2 33948  74.0352 327.2534 0022237  46.6895 313.6107 14.35605752878507"}}, "geometry": {"type": "Point", "coordinates": [-44.18220252158639, -32.61022743704308]}}, {"type": "Feature", "properties": {"norad_id": 33971, "name": "COSMOS 2251 DEB", "group": "cosmos-2251-debris", "lat": -41.7390227352617, "lon": 109.93034069113772, "alt_km": 777.3147765819258, "timestamp": "2025-12-01T03:58:49.144320+00:00", "meta": {"OBJECT_NAME": "COSMOS 2251 DEB", "OBJECT_ID": "1993-036FE", "EPOCH": "2025-11-30T20:22:08.092128", "MEAN_MOTION": 14.39686568, "ECCENTRICITY": 0.0017977, "INCLINATION": 74.0247, "RA_OF_ASC_NODE": 275.7082, "ARG_OF_PERICENTER": 18.6146, "MEAN_ANOMALY": 2.1728, "EPHEMERIS_TYPE": 0, "CLASSIFICATION_TYPE": "U", "NORAD_CAT_ID": 33971, "ELEMENT_SET_NO": 999, "REV_AT_EPOCH": 87968, "BSTAR": 0.0003291, "MEAN_MOTION_DOT": 1.005e-05, "MEAN_MOTION_DDOT": 0, "GROUP": "cosmos-2251-debris"}, "tle": {"line1": "1 33971U 93036FE  25334.84870477  .00001005  00000+0  32910-3 0  9999", "line2": "2 33971  74.0247 275.7082 0017977  18.6146   2.1728 14.39686568879681"}}, "geometry": {"type": "Point", "coordinates": [109.93034069113772, -41.7390227352617]}}, {"type": "Feature", "properties": {"norad_id": 33972, "name": "COSMOS 2251 DEB", "group": "cosmos-2251-debris", "lat": -49.20809260992601, "lon": -167.4524213104792, "alt_km": 753.0652575396953, "timestamp": "2025-12-01T03:58:49.144331+00:00", "meta": {"OBJECT_NAME": "COSMOS 2251 DEB", "OBJECT_ID": "1993-036FF", "EPOCH": "2025-11-30T10:39:20.875968", "MEAN_MOTION": 14.36087445, "ECCENTRICITY": 0.01227659, "INCLINATION": 73.9948, "RA_OF_ASC_NODE": 213.3041, "ARG_OF_PERICENTER": 23.8143, "MEAN_ANOMALY": 155.2063, "EPHEMERIS_TYPE": 0, "CLASSIFICATION_TYPE": "U", "NORAD_CAT_ID": 33972, "ELEMENT_SET_NO": 999, "REV_AT_EPOCH": 86897, "BSTAR": 0.0012279173, "MEAN_MOTION_DOT": 3.869e-05, "MEAN_MOTION_DDOT": 0, "GROUP": "cosmos-2251-debris"}, "tle": {"line1": "1 33972U 93036FF  25334.44399162  .00003869  00000+0  12279-2 0  9998", "line2": "2 33972  73.9948 213.3041 0122765  23.8143 155.2063 14.36087445868976"}}, "geometry": {"type": "Point", "coordinates": [-167.4524213104792, -49.20809260992601]}}, {"type": "Feature", "properties": {"norad_id": 33973, "name": "COSMOS 2251 DEB", "group": "cosmos-2251-debris", "lat": 35.18521775857334, "lon": 136.16845151508565, "alt_km": 739.0079183980943, "timestamp": "2025-12-01T03:58:49.144341+00:00", "meta": {"OBJECT_NAME": "COSMOS 2251 DEB", "OBJECT_ID": "1993-036FG", "EPOCH": "2025-11-30T16:15:18.732096", "MEAN_MOTION": 14.45368855, "ECCENTRICITY": 0.0047035, "INCLINATION": 74.0063, "RA_OF_ASC_NODE": 125.4139, "ARG_OF_PERICENTER": 306.1199, "MEAN_ANOMALY": 69.2204, "EPHEMERIS_TYPE": 0, "CLASSIFICATION_TYPE": "U", "NORAD_CAT_ID": 33973, "ELEMENT_SET_NO": 999, "REV_AT_EPOCH": 88426, "BSTAR": 0.00015225, "MEAN_MOTION_DOT": 5.14e-06, "MEAN_MOTION_DDOT": 0, "GROUP": "cosmos-2251-debris"}, "tle": {"line1": "1 33973U 93036FG  25334.67730014  .00000514  00000+0  15225-3 0  9998", "line2": "2 33973  74.0063 125.4139 0047035 306.1199  69.2204 14.45368855884260"}}, "geometry": {"type": "Point", "coordinates": [136.16845151508565, 35.18521775857334]}}, {"type": "Feature", "properties": {"norad_id": 33975, "name": "COSMOS 2251 DEB", "group": "cosmos-2251-debris", "lat": 43.49721236118888, "lon": 120.80854841555174, "alt_km": 1023.3093624983794, "timestamp": "2025-12-01T03:58:49.144351+00:00", "meta": {"OBJECT_NAME": "COSMOS 2251 DEB", "OBJECT_ID": "1993-036FJ", "EPOCH": "2025-11-30T19:11:02.551776", "MEAN_MOTION": 14.00479089, "ECCENTRICITY": 0.0191508, "INCLINATION": 73.8009, "RA_OF_ASC_NODE": 105.4411, "ARG_OF_PERICENTER": 240.16, "MEAN_ANOMALY": 118.0378, "EPHEMERIS_TYPE": 0, "CLASSIFICATION_TYPE": "U", "NORAD_CAT_ID": 33975, "ELEMENT_SET_NO": 999, "REV_AT_EPOCH": 85662, "BSTAR": 0.00070083, "MEAN_MOTION_DOT": 1.192e-05, "MEAN_MOTION_DDOT": 0, "GROUP": "cosmos-2251-debris"}, "tle": {"line1": "1 33975U 93036FJ  25334.79933509  .00001192  00000+0  70083-3 0  9993", "line2": "2 33975  73.8009 105.4411 0191508 240.1600 118.0378 14.00479089856626"}}, "geometry": {"type": "Point", "coordinates": [120.80854841555174, 43.49721236118888]}}, {"type": "Feature", "properties": {"norad_id": 33980, "name": "COSMOS 2251 DEB", "group": "cosmos-2251-debris", "lat": -15.274006328573055, "lon": 76.96360784968611, "alt_km": 711.4086235023333, "timestamp": "2025-12-01T03:58:49.144361+00:00", "meta": {"OBJECT_NAME": "COSMOS 2251 DEB", "OBJECT_ID": "1993-036FP", "EPOCH": "2025-11-30T18:54:59.685120", "MEAN_MOTION": 14.58511577, "ECCENTRICITY": 0.0029361, "INCLINATION": 74.0209, "RA_OF_ASC_NODE": 82.1708, "ARG_OF_PERICENTER": 229.0773, "MEAN_ANOMALY": 292.7063, "EPHEMERIS_TYPE": 0, "CLASSIFICATION_TYPE": "U", "NORAD_CAT_ID": 33980, "ELEMENT_SET_NO": 999, "REV_AT_EPOCH": 88620, "BSTAR": 0.00088755, "MEAN_MOTION_DOT": 4.12e-05, "MEAN_MOTION_DDOT": 0, "GROUP": "cosmos-2251-debris"}, "tle": {"line1": "1 33980U 93036FP  25334.78819080  .00004120  00000+0  88755-3 0  9994", "line2": "2 33980  74.0209  82.1708 0029361 229.0773 292.7063 14.58511577886201"}}, "geometry": {"type": "Point", "coordinates": [76.96360784968611, -15.274006328573055]}}]}